#aV2014  5 10  0  0  0.00000000     288 DD+AD WGS84 FIT  NGA
## 1791 518400.00000000   300.00000000 56787 0.0000000000000
+   31     1  2  3  4  5  7  8  9 10 11 12 13 14 15 16 17 18
+         19 20 21 22 23 24 25 26 27 28 29 30 31 32  0  0  0
+          0  0  0  0  0  0  0  0  0  0  0  0  0  0  0  0  0
+          0  0  0  0  0  0  0  0  0  0  0  0  0  0  0  0  0
+          0  0  0  0  0  0  0  0  0  0  0  0  0  0  0  0  0
++         2  2  2  2  2  2  2  2  2  2  2  2  2  2  2  2  2
++         2  2  2  2  2  2  2  2  2  2  2  2  2  2  0  0  0
++         0  0  0  0  0  0  0  0  0  0  0  0  0  0  0  0  0
++         0  0  0  0  0  0  0  0  0  0  0  0  0  0  0  0  0
++         0  0  0  0  0  0  0  0  0  0  0  0  0  0  0  0  0
%c cc cc ccc ccc cccc cccc cccc cccc ccccc ccccc ccccc ccccc
%c cc cc ccc ccc cccc cccc cccc cccc ccccc ccccc ccccc ccccc
%f  0.0000000  0.000000000  0.00000000000  0.000000000000000
%f  0.0000000  0.000000000  0.00000000000  0.000000000000000
%i    0    0    0    0      0      0      0      0         0
%i    0    0    0    0      0      0      0      0         0
/*      NGA, ST. LOUIS,MO.                                  
/*   EPHEMERIS COMPUTED FROM  1 DAYS OF DATA                
/*   EPOCHA SMOOTHER                                       
/* CCCCCCCCCCCCCCCCCCCCCCCCCCCCCCCCCCCCCCCCCCCCCCCCCCCCCCCCC
*  2014  5 10 10 25  0.00000000
P  1 -13324.961699  22869.964706   -945.431645     11.719310                    
V  1  -3124.005196   -551.471304  31808.813517      0.013032                    
P  2  18443.526432  -6296.272219 -17529.777252    494.506222                    
V  2  -9513.980837  21173.813587 -17818.497565      0.021622                    
P  3 -15476.926485   4572.929604  20572.992191    362.876583                    
V  3 -16025.834503 -22292.181187  -6766.438566      0.049889                    
P  4  13596.665001   8153.359228 -21619.170690      6.857879                    
V  4 -13868.689251  22951.311074    166.586052     -0.000120                    
P  5  26076.904952  -2827.385075   4665.845591   -373.765318                    
V  5   5891.117585   3148.167473 -30613.119761      0.024331                    
P  7  -2941.863919  22230.043512  14034.972007    344.675798                    
V  7 -11376.472913  13863.356405 -24787.952674      0.042381                    
P  8   4002.352635  16330.459047  20534.537074     13.484507                    
V  8 -16775.261887  19660.249678 -13049.308757      0.003029                    
P  9   7642.637306  13963.461131  20690.693345    326.509963                    
V  9 -15107.296978  22991.740900  -9870.834811      0.027867                    
P 10  22199.304324   9476.921202 -11887.206525   -124.942595                    
V 10 -14542.648639   1894.934279 -25981.234539     -0.016118                    
P 11 -12378.432445  21437.350071   8856.546485   -487.729657                    
V 11  -1913.200425 -12893.031103  27262.548904     -0.031524                    
P 12  14862.307312 -11459.071632 -18766.355074    203.999738                    
V 12  23587.302800   2650.667190  17338.734009      0.024571                    
P 13   2989.947643  24462.225235  -9819.103616      1.262236                    
V 13  -6687.710845 -10546.655863 -28859.014754     -0.038240                    
P 14 -14395.530427 -21470.177066  -6218.354861    174.179773                    
V 14  -1237.644597  -8374.989395  30557.022642     -0.034121                    
P 15  10569.820740 -12313.617263  20929.758450   -178.662109                    
V 15  14450.918934  22636.274877   6292.480079     -0.021570                    
P 16 -26275.000213   1071.915859   4888.372961   -219.169034                    
V 16  -6037.635402  -2102.095341 -31324.189505      0.018883                    
P 17  15349.964951  20654.164014  -6773.408688    -91.966833                    
V 17   1841.421354   8993.456425  30213.882131     -0.030396                    
P 18  -6294.390253 -15810.589063  20902.686611    318.349102                    
V 18  25611.613446   -326.247673   7295.370232      0.022542                    
P 19 -12278.927499   9141.256978  21523.860072   -456.025148                    
V 19 -11477.691933 -25211.970401   4574.379666     -0.022238                    
P 20 -12512.919813  14443.465164 -18608.938618    188.005282                    
V 20 -23442.877990  -1003.506365  15203.152063      0.038211                    
P 21  -1481.890214 -21142.652890  16364.903678   -360.244272                    
V 21  12413.556469 -15744.011593 -20465.397538     -0.022302                    
P 22 -19153.639007 -11456.020432  14731.214637    233.141936                    
V 22  18429.062553  -2386.329007  22263.819011      0.029099                    
P 23  -5391.186487  17949.423714 -18551.861038    -19.320732                    
V 23 -12886.878981 -20265.808688 -16189.173177     -0.031106                    
P 24  15670.914196 -21031.764691   3834.140219    -28.130108                    
V 24     54.193363   5750.345541  31224.462615     -0.006165                    
P 25   1329.036457 -14869.011977 -22034.035168     23.570408                    
V 25  27755.327052    737.680428   1311.741356      0.006427                    
P 26  15767.111272   1164.474995  20739.100748     83.215752                    
V 26  10296.201157  25798.655976  -8712.657539     -0.117203                    
P 27 -17298.124526  -2603.386399  19998.280188    -17.002651                    
V 27 -11289.482799 -22755.390161 -12667.254019      0.016385                    
P 28  15300.046575  13218.890054  17896.154116    353.677070                    
V 28 -21424.748002   -926.476630  19544.073388      0.027925                    
P 29  -3340.730751 -24047.321247 -10790.106169    531.524378                    
V 29   7929.222818  11423.963734 -27761.388251      0.026694                    
P 30   4798.189543  17046.596574  19777.255919     -9.220397                    
V 30 -15720.065742  19666.216133 -13156.582078     -0.047383                    
P 31 -14898.750281  -3718.007476 -21555.837804    334.255949                    
V 31  14836.333602 -23321.392110  -5888.836112      0.000154                    
P 32 -22783.682474   5941.989696 -11679.882248   -431.999880                    
V 32 -14720.571753  -4750.905110  26700.983266      0.080821                    
EOF
